CAPE-3                  
1 47309U 21002A   23310.45506301  .00180511  00000+0  23451-2 0  9993
2 47309  60.6697 225.9261 0021631  30.3735 329.8616 15.57613993156309
RADFXSAT-2 (AO-109)     
1 47311U 21002C   23310.49151229  .00113162  00000+0  19258-2 0  9993
2 47311  60.6763 227.6397 0020869  29.4829 330.7443 15.50493013156266
CP12 (EXOCUBE 2)        
1 47319U 21002L   23310.19408391  .00114283  00000+0  20401-2 0  9990
2 47319  60.6739 231.7405 0021811  28.4943 331.7343 15.49112788156127
UVSQ-SAT                
1 47438U 21006AB  23310.11073482  .00068639  00000+0  23264-2 0  9990
2 47438  97.3655   5.5413 0007349 304.1345  55.9198 15.30269207154309
YUSAT-1                 
1 47439U 21006AC  23310.41402564  .00082326  00000+0  24059-2 0  9993
2 47439  97.3659   7.3275 0006442 296.0191  64.0388 15.34955959154448
2021-006AE              
1 47441U 21006AE  23310.42055573  .00098033  00000+0  26526-2 0  9994
2 47441  97.3552   7.1371 0006377 296.5030  63.5561 15.37297929154459
SOMP2B                  
1 47445U 21006AJ  23310.11313381  .00064794  00000+0  22688-2 0  9990
2 47445  97.3618   4.5488 0007369 311.1267  48.9336 15.29225877154264
CUBEL                   
1 47448U 21006AM  23310.41348035  .00011198  00000+0  55240-3 0  9991
2 47448  97.3790   2.5024 0010137 327.0224  33.0377 15.18032469154034
FLOCK 4S-21             
1 47456U 21006AV  23310.42541859  .00056218  00000+0  16116-2 0  9990
2 47456  97.3718   9.2581 0005780 288.4600  71.6015 15.35687169154513
IDEASSAT                
1 47458U 21006AX  23310.10197647  .00055861  00000+0  20235-2 0  9999
2 47458  97.3719   5.3330 0006822 311.7488  48.3168 15.28161940154232
NASA PTD-1              
1 47482U 21006BX  23310.41277921  .00242474  00000+0  40977-2 0  9997
2 47482  97.3768  11.0366 0002255 283.7908  76.3092 15.50721575154594
ASTROCAST-0103          
1 47487U 21006CC  23310.09267709  .00026092  00000+0  11629-2 0  9997
2 47487  97.3859   2.8297 0007434 348.1316  11.9743 15.21377660154020
ASTROCAST-0102          
1 47488U 21006CD  23310.12662237  .00060214  00000+0  26506-2 0  9991
2 47488  97.3778   2.1592 0007889 325.5816  34.4908 15.21591494154026
LEMUR-2-RUAIRI-EILIDH   
1 47511U 21006DC  23310.11965078  .00211299  00000+0  41515-2 0  9994
2 47511  97.3675   9.2489 0002371 278.3189  81.7792 15.46501438154539
ASTROCAST-0104          
1 47519U 21006DK  23310.14193771  .00022666  00000+0  10090-2 0  9990
2 47519  97.3810   2.3864 0006636 320.6960  39.3793 15.21453382154026
FLOCK 4S-29             
1 47520U 21006DL  23310.42117578  .00155365  00000+0  34058-2 0  9997
2 47520  97.3627   8.6054 0004188 295.2956  64.7857 15.43481906154532
FLOCK 4S-10             
1 47523U 21006DP  23310.14648087  .00049127  00000+0  14252-2 0  9995
2 47523  97.3696   7.9624 0004294 315.1010  44.9886 15.35355163154445
FLOCK 4S-7              
1 47527U 21006DT  23310.12455304  .00057227  00000+0  16731-2 0  9999
2 47527  97.3652   7.5720 0003943 311.2671  48.8232 15.35071786155405
LEMUR-2-CHANTAL         
1 47529U 21006DV  23310.42726052  .00085440  00000+0  22157-2 0  9992
2 47529  97.3685   8.1687 0003307 301.4831  58.6091 15.38679914155441
HIBER-4                 
1 47541U 21006EB  23310.40434956  .00074105  00000+0  23190-2 0  9997
2 47541  97.3623   5.9505 0006163 304.4212  55.6447 15.32822572154377
SAI-1 NANOCONNECT-2     
1 47701U 21015C   23310.20296345  .00849816  00000+0  27859-2 0  9996
2 47701  97.3623  39.2021 0003505 303.0924  57.0011 15.88600701150301
ARKTIKA-M 1             
1 47719U 21016A   23308.93903945  .00000142  00000+0  00000+0 0  9991
2 47719  63.1446 177.0633 6890805 269.3172  18.1618  2.00607355 19628
STARLINK-2342           
1 47883U 21021Z   23310.28486979  .00009271  00000+0  64015-3 0  9995
2 47883  53.0535 152.1923 0001654  86.8247 273.2931 15.06420042146863
GRUS-1B                 
1 47934U 21022C   23310.48210033  .00004576  00000+0  41997-3 0  9998
2 47934  97.6465 204.0717 0017104 284.3261  75.6060 14.95235106143172
2021-022F               
1 47937U 21022F   23310.48515514  .00014453  00000+0  82571-3 0  9991
2 47937  97.4792 205.2443 0014173 191.0572 169.0349 15.12725454144592
2021-022G               
1 47938U 21022G   23310.47561016  .00033346  00000+0  16653-2 0  9998
2 47938  97.4760 205.5527 0015687 194.9074 165.1699 15.17297747144638
2021-022H               
1 47939U 21022H   23310.46272763  .00049540  00000+0  21376-2 0  9997
2 47939  97.4807 208.6237 0013073 167.9220 192.2333 15.22281753144792
WILDTRACKCUBE-SIMBA     
1 47941U 21022K   23310.44773778  .00025341  00000+0  13489-2 0  9999
2 47941  97.4796 205.0323 0016793 197.9578 162.1063 15.15094351144525
HIBER-3                 
1 47942U 21022L   23309.98381874  .00052384  00000+0  24292-2 0  9990
2 47942  97.4762 206.1499 0014469 188.7045 171.3941 15.19777766144585
2021-022M               
1 47943U 21022M   23310.45421013  .00049533  00000+0  21301-2 0  9995
2 47943  97.4800 208.7494 0013013 167.3956 192.7608 15.22397577144668
ELSA-D                  
1 47944U 21022N   23310.46869698  .00035022  00000+0  16331-2 0  9997
2 47944  97.4790 206.4879 0013708 182.7658 177.3503 15.19698574144659
UNISAT-7                
1 47945U 21022P   23309.96931138  .00020029  00000+0  11227-2 0  9990
2 47945  97.4778 204.5678 0015102 191.0518 169.0384 15.13325755144354
2021-022Q               
1 47946U 21022Q   23310.45312930  .00026716  00000+0  13585-2 0  9998
2 47946  97.4790 206.4241 0014779 180.9764 179.1443 15.16726374144640
NANOSATC-BR2            
1 47950U 21022U   23310.44820720  .00045530  00000+0  20888-2 0  9992
2 47950  97.4759 206.4554 0014808 190.2640 169.8295 15.20182463144648
CUBESX-SIRIUS-HSE       
1 47951U 21022V   23310.48246087  .00031877  00000+0  16038-2 0  9996
2 47951  97.4786 205.6838 0016272 194.7622 165.3139 15.17039803144576
CUBESX-HSE              
1 47952U 21022W   23310.44920919  .00035185  00000+0  17652-2 0  9995
2 47952  97.4791 205.7120 0016157 194.0373 166.0414 15.17118411144573
2021-022X               
1 47953U 21022X   23310.48912649  .00020572  00000+0  11309-2 0  9998
2 47953  97.4766 204.3344 0016816 200.4394 159.6167 15.13993093144235
KSU-CUBESAT             
1 47954U 21022Y   23310.46846298  .00039129  00000+0  18886-2 0  9998
2 47954  97.4799 206.3449 0015459 191.1575 168.9318 15.18454033144332
CHALLENGE ONE           
1 47956U 21022AA  23310.21792642  .00037968  00000+0  18880-2 0  9999
2 47956  97.4794 205.5010 0016401 197.1681 162.9000 15.17407860144322
2021-022AC              
1 47958U 21022AC  23310.45290784  .00023303  00000+0  12643-2 0  9996
2 47958  97.4755 204.2871 0016990 200.4684 159.5869 15.14431270143318
GRBALPHA                
1 47959U 21022AD  23310.49380245  .00031732  00000+0  15891-2 0  9996
2 47959  97.4792 205.8636 0015995 193.9641 166.1152 15.17207308143404
ORBICRAFT-ZORKY         
1 47960U 21022AE  23310.43939080  .00036811  00000+0  17882-2 0  9994
2 47960  97.4829 206.4759 0015588 191.8641 168.2228 15.18242394144116
3B5GSAT (SATELIOT 1)    
1 47961U 21022AF  23310.28622139  .00092592  00000+0  31256-2 0  9991
2 47961  97.4856 210.6660 0012842 171.1712 188.9757 15.30236577143671
STECCO                  
1 47962U 21022AG  23310.47570961  .00070172  00000+0  25507-2 0  9990
2 47962  97.4800 210.4318 0010640 164.0158 196.1419 15.27946051143709
SMOG-1                  
1 47964U 21022AJ  23310.30135873  .00086678  00000+0  30224-2 0  9993
2 47964  97.4813 211.0988 0012426 161.1773 198.9928 15.29212490143722
CENTAURI-3 (TYVAK-0210) 
1 47966U 21023B   23310.43268317  .00092948  00000+0  32506-2 0  9992
2 47966  45.0088  44.7963 0007821 308.4200  51.5981 15.28548903144943
GLOBAL-9                
1 47971U 21023G   23309.99114904  .00069793  00000+0  14450-2 0  9999
2 47971  44.9926 160.6498 0006674 199.3383 160.7254 15.44919949147830
BCCSAT-1                
1 48041U 21022AK  23310.45681305  .00069890  00000+0  27269-2 0  9994
2 48041  97.4813 209.5707 0010670 162.0613 198.1003 15.25597659143615
BEESAT-8                
1 48085U 21022AP  23309.91298249  .00045771  00000+0  21006-2 0  9997
2 48085  97.4838 206.9188 0014948 189.9993 170.0947 15.20166990143683
2021-033E               
1 48252U 21033E   23310.46578443  .00044741  00000+0  12536-2 0  9998
2 48252  97.2951  20.2766 0006885 254.7434 105.3050 15.36454025140773
2021-033H               
1 48255U 21033H   23310.37732098  .00709087  00000+0  29267-2 0  9999
2 48255  97.3030  31.0103 0009841 285.4750  74.5433 15.84102149141400
AII-BRAVO               
1 48270U 21034C   23310.45108139  .00012925  00000+0  13391-2 0  9998
2 48270  97.6879  13.0118 0003533 177.8519 182.2715 14.90147533136929
TYVAK-182A              
1 48271U 21034D   23310.16634807  .00015181  00000+0  15328-2 0  9992
2 48271  97.6862  13.4848 0000953 216.2664 143.8490 14.91149540136922
CSS (TIANHE)            
1 48274U 21035A   23310.50769843  .00064443  00000+0  73922-3 0  9993
2 48274  41.4728   9.4327 0003313  62.1521 297.9653 15.61144835144081
TYVAK-0130              
1 48606U 21041BF  23310.04204504  .00022675  00000+0  16321-2 0  9996
2 48606  53.0322  59.7412 0013884 119.0510 241.1870 15.04067629135619
HAIYANG-2D              
1 48621U 21043A   23310.43499909  .00000044  00000+0  11419-3 0  9993
2 48621  65.9958 159.2147 0007506 276.5295  83.4918 13.83374579124660
2021-050D               
1 48843U 21050D   23310.50528845  .00023560  00000+0  95228-3 0  9995
2 48843  97.4256  26.1550 0016407 232.0843 127.8912 15.24616137133745
BRIK-II                 
1 48876U 21058F   23310.13940171  .00037251  00000+0  12986-2 0  9999
2 48876  60.6745 244.8106 0021547 158.0721 202.1296 15.29206153130720
SPACEBEE-100            
1 48883U 21059E   23310.20440256  .00164838  00000+0  32106-2 0  9993
2 48883  97.6065  91.9730 0002344 142.7530 217.3882 15.46931523131218
